{"type": "FeatureCollection", "features": [ {"type": "Feature", "properties": {"norad_id": 66755, "name": "TRANSPORTER-15 CT", "group": "last-30-days", "lat": 25.726384778038188, "lon": -110.2762144714903, "alt_km": 512.4098313524046, "timestamp": "2025-12-20T11:30:27.105579+00:00", "meta": {"OBJECT_NAME": "TRANSPORTER-15 CT", "OBJECT_ID": "2025-276CT", "EPOCH": "2025-12-20T04:30:05.590080", "MEAN_MOTION": 15.17601075, "ECCENTRICITY": 7.99e-05, "INCLINATION": 97.4418, "RA_OF_ASC_NODE": 65.826, "ARG_OF_PERICENTER": 254.1336, "MEAN_ANOMALY": 105.981, "EPHEMERIS_TYPE": 0, "CLASSIFICATION_TYPE": "U", "NORAD_CAT_ID": 66755, "ELEMENT_SET_NO": 999, "REV_AT_EPOCH": 325, "BSTAR": 0.00025371, "MEAN_MOTION_DOT": 5.033e-05, "MEAN_MOTION_DDOT": 0}, "tle": {"line1": "1 66755U 25276CT  25354.18756470  .00005033  00000+0  25371-3 0  9999", "line2": "2 66755  97.4418  65.8260 0000799 254.1336 105.9810 15.17601075  3257"}}, "geometry": {"type": "Point", "coordinates": [-110.2762144714903, 25.726384778038188]}}, {"type": "Feature", "properties": {"norad_id": 66756, "name": "TRANSPORTER-15 CU", "group": "last-30-days", "lat": -0.007819652755704811, "lon": -113.87278167089053, "alt_km": 514.3652689790069, "timestamp": "2025-12-20T11:30:27.105592+00:00", "meta": {"OBJECT_NAME": "TRANSPORTER-15 CU", "OBJECT_ID": "2025-276CU", "EPOCH": "2025-12-20T04:23:20.601312", "MEAN_MOTION": 15.17912677, "ECCENTRICITY": 0.0001323, "INCLINATION": 97.4425, "RA_OF_ASC_NODE": 65.8366, "ARG_OF_PERICENTER": 162.441, "MEAN_ANOMALY": 197.687, "EPHEMERIS_TYPE": 0, "CLASSIFICATION_TYPE": "U", "NORAD_CAT_ID": 66756, "ELEMENT_SET_NO": 999, "REV_AT_EPOCH": 325, "BSTAR": 0.00019641, "MEAN_MOTION_DOT": 3.916e-05, "MEAN_MOTION_DDOT": 0}, "tle": {"line1": "1 66756U 25276CU  25354.18287733  .00003916  00000+0  19641-3 0  9992", "line2": "2 66756  97.4425  65.8366 0001323 162.4410 197.6870 15.17912677  3258"}}, "geometry": {"type": "Point", "coordinates": [-113.87278167089053, -0.007819652755704811]}}, {"type": "Feature", "properties": {"norad_id": 66757, "name": "TRANSPORTER-15 CV", "group": "last-30-days", "lat": -6.546579431000851, "lon": -114.72627419764368, "alt_km": 514.7993874809572, "timestamp": "2025-12-20T11:30:27.105603+00:00", "meta": {"OBJECT_NAME": "TRANSPORTER-15 CV", "OBJECT_ID": "2025-276CV", "EPOCH": "2025-12-20T04:21:38.320128", "MEAN_MOTION": 15.18030102, "ECCENTRICITY": 0.0001422, "INCLINATION": 97.4434, "RA_OF_ASC_NODE": 65.8405, "ARG_OF_PERICENTER": 161.691, "MEAN_ANOMALY": 198.4375, "EPHEMERIS_TYPE": 0, "CLASSIFICATION_TYPE": "U", "NORAD_CAT_ID": 66757, "ELEMENT_SET_NO": 999, "REV_AT_EPOCH": 325, "BSTAR": 0.000296, "MEAN_MOTION_DOT": 5.957e-05, "MEAN_MOTION_DDOT": 0}, "tle": {"line1": "1 66757U 25276CV  25354.18169352  .00005957  00000+0  29600-3 0  9992", "line2": "2 66757  97.4434  65.8405 0001422 161.6910 198.4375 15.18030102  3253"}}, "geometry": {"type": "Point", "coordinates": [-114.72627419764368, -6.546579431000851]}}, {"type": "Feature", "properties": {"norad_id": 66758, "name": "TRANSPORTER-15 CW", "group": "last-30-days", "lat": -7.992258462794626, "lon": -114.92529416897652, "alt_km": 515.5029357108779, "timestamp": "2025-12-20T11:30:27.105613+00:00", "meta": {"OBJECT_NAME": "TRANSPORTER-15 CW", "OBJECT_ID": "2025-276CW", "EPOCH": "2025-12-20T04:21:15.780096", "MEAN_MOTION": 15.18046274, "ECCENTRICITY": 0.0001315, "INCLINATION": 97.4421, "RA_OF_ASC_NODE": 65.8332, "ARG_OF_PERICENTER": 117.8258, "MEAN_ANOMALY": 242.311, "EPHEMERIS_TYPE": 0, "CLASSIFICATION_TYPE": "U", "NORAD_CAT_ID": 66758, "ELEMENT_SET_NO": 999, "REV_AT_EPOCH": 325, "BSTAR": 0.00040361, "MEAN_MOTION_DOT": 8.153e-05, "MEAN_MOTION_DDOT": 0}, "tle": {"line1": "1 66758U 25276CW  25354.18143264  .00008153  00000+0  40361-3 0  9995", "line2": "2 66758  97.4421  65.8332 0001315 117.8258 242.3110 15.18046274  3251"}}, "geometry": {"type": "Point", "coordinates": [-114.92529416897652, -7.992258462794626]}}, {"type": "Feature", "properties": {"norad_id": 66759, "name": "TRANSPORTER-15 CX", "group": "last-30-days", "lat": -15.70552836715962, "lon": -115.98077955532855, "alt_km": 515.641887758743, "timestamp": "2025-12-20T11:30:27.105623+00:00", "meta": {"OBJECT_NAME": "TRANSPORTER-15 CX", "OBJECT_ID": "2025-276CX", "EPOCH": "2025-12-19T14:05:02.213952", "MEAN_MOTION": 15.18161392, "ECCENTRICITY": 0.0001493, "INCLINATION": 97.4394, "RA_OF_ASC_NODE": 65.2472, "ARG_OF_PERICENTER": 144.8645, "MEAN_ANOMALY": 215.2688, "EPHEMERIS_TYPE": 0, "CLASSIFICATION_TYPE": "U", "NORAD_CAT_ID": 66759, "ELEMENT_SET_NO": 999, "REV_AT_EPOCH": 316, "BSTAR": 0.0002502, "MEAN_MOTION_DOT": 5.044e-05, "MEAN_MOTION_DDOT": 0}, "tle": {"line1": "1 66759U 25276CX  25353.58683118  .00005044  00000+0  25020-3 0  9997", "line2": "2 66759  97.4394  65.2472 0001493 144.8645 215.2688 15.18161392  3165"}}, "geometry": {"type": "Point", "coordinates": [-115.98077955532855, -15.70552836715962]}}, {"type": "Feature", "properties": {"norad_id": 66760, "name": "TRANSPORTER-15 CY", "group": "last-30-days", "lat": -17.921481422444, "lon": -116.29126312579892, "alt_km": 516.424106521933, "timestamp": "2025-12-20T11:30:27.105633+00:00", "meta": {"OBJECT_NAME": "TRANSPORTER-15 CY", "OBJECT_ID": "2025-276CY", "EPOCH": "2025-12-20T04:18:39.250944", "MEAN_MOTION": 15.18157301, "ECCENTRICITY": 0.0001603, "INCLINATION": 97.4409, "RA_OF_ASC_NODE": 65.8363, "ARG_OF_PERICENTER": 112.1646, "MEAN_ANOMALY": 247.9758, "EPHEMERIS_TYPE": 0, "CLASSIFICATION_TYPE": "U", "NORAD_CAT_ID": 66760, "ELEMENT_SET_NO": 999, "REV_AT_EPOCH": 325, "BSTAR": 0.00031464, "MEAN_MOTION_DOT": 6.36e-05, "MEAN_MOTION_DDOT": 0}, "tle": {"line1": "1 66760U 25276CY  25354.17962096  .00006360  00000+0  31464-3 0  9991", "line2": "2 66760  97.4409  65.8363 0001603 112.1646 247.9758 15.18157301  3256"}}, "geometry": {"type": "Point", "coordinates": [-116.29126312579892, -17.921481422444]}}, {"type": "Feature", "properties": {"norad_id": 66761, "name": "TRANSPORTER-15 CZ", "group": "last-30-days", "lat": -29.219956975565367, "lon": -118.0562386659972, "alt_km": 516.4833193488685, "timestamp": "2025-12-20T11:30:27.105643+00:00", "meta": {"OBJECT_NAME": "TRANSPORTER-15 CZ", "OBJECT_ID": "2025-276CZ", "EPOCH": "2025-12-20T02:40:49.176192", "MEAN_MOTION": 15.1841514, "ECCENTRICITY": 0.0001491, "INCLINATION": 97.4407, "RA_OF_ASC_NODE": 65.774, "ARG_OF_PERICENTER": 126.7583, "MEAN_ANOMALY": 233.3788, "EPHEMERIS_TYPE": 0, "CLASSIFICATION_TYPE": "U", "NORAD_CAT_ID": 66761, "ELEMENT_SET_NO": 999, "REV_AT_EPOCH": 324, "BSTAR": 0.00036289, "MEAN_MOTION_DOT": 7.402e-05, "MEAN_MOTION_DDOT": 0}, "tle": {"line1": "1 66761U 25276CZ  25354.11168028  .00007402  00000+0  36289-3 0  9997", "line2": "2 66761  97.4407  65.7740 0001491 126.7583 233.3788 15.18415140  3248"}}, "geometry": {"type": "Point", "coordinates": [-118.0562386659972, -29.219956975565367]}}, {"type": "Feature", "properties": {"norad_id": 66762, "name": "TRANSPORTER-15 DA", "group": "last-30-days", "lat": 46.66684209191641, "lon": -105.9300771482159, "alt_km": 512.2765943280483, "timestamp": "2025-12-20T11:30:27.105652+00:00", "meta": {"OBJECT_NAME": "TRANSPORTER-15 DA", "OBJECT_ID": "2025-276DA", "EPOCH": "2025-12-20T04:35:32.950176", "MEAN_MOTION": 15.1713775, "ECCENTRICITY": 0.0002521, "INCLINATION": 97.4418, "RA_OF_ASC_NODE": 65.8233, "ARG_OF_PERICENTER": 306.2069, "MEAN_ANOMALY": 53.8931, "EPHEMERIS_TYPE": 0, "CLASSIFICATION_TYPE": "U", "NORAD_CAT_ID": 66762, "ELEMENT_SET_NO": 999, "REV_AT_EPOCH": 325, "BSTAR": -0.0031239, "MEAN_MOTION_DOT": -0.0006147, "MEAN_MOTION_DDOT": 0}, "tle": {"line1": "1 66762U 25276DA  25354.19135359 -.00061470  00000+0 -31239-2 0  9993", "line2": "2 66762  97.4418  65.8233 0002521 306.2069  53.8931 15.17137750  3251"}}, "geometry": {"type": "Point", "coordinates": [-105.9300771482159, 46.66684209191641]}}, {"type": "Feature", "properties": {"norad_id": 66763, "name": "TRANSPORTER-15 DB", "group": "last-30-days", "lat": 36.84813235127186, "lon": -108.26326326191058, "alt_km": 510.98257601919704, "timestamp": "2025-12-20T11:30:27.105665+00:00", "meta": {"OBJECT_NAME": "TRANSPORTER-15 DB", "OBJECT_ID": "2025-276DB", "EPOCH": "2025-12-20T04:32:57.776640", "MEAN_MOTION": 15.17256655, "ECCENTRICITY": 0.0001099, "INCLINATION": 97.443, "RA_OF_ASC_NODE": 65.8296, "ARG_OF_PERICENTER": 138.4182, "MEAN_ANOMALY": 221.7136, "EPHEMERIS_TYPE": 0, "CLASSIFICATION_TYPE": "U", "NORAD_CAT_ID": 66763, "ELEMENT_SET_NO": 999, "REV_AT_EPOCH": 325, "BSTAR": -0.0041962, "MEAN_MOTION_DOT": -0.00082583, "MEAN_MOTION_DDOT": 0}, "tle": {"line1": "1 66763U 25276DB  25354.18955760 -.00082583  00000+0 -41962-2 0  9991", "line2": "2 66763  97.4430  65.8296 0001099 138.4182 221.7136 15.17256655  3254"}}, "geometry": {"type": "Point", "coordinates": [-108.26326326191058, 36.84813235127186]}}, {"type": "Feature", "properties": {"norad_id": 66764, "name": "TRANSPORTER-15 DC", "group": "last-30-days", "lat": 15.074461546693321, "lon": -111.86458157633547, "alt_km": 512.8725302247667, "timestamp": "2025-12-20T11:30:27.105677+00:00", "meta": {"OBJECT_NAME": "TRANSPORTER-15 DC", "OBJECT_ID": "2025-276DC", "EPOCH": "2025-12-20T04:27:16.607232", "MEAN_MOTION": 15.17669781, "ECCENTRICITY": 0.000179, "INCLINATION": 97.4416, "RA_OF_ASC_NODE": 65.8291, "ARG_OF_PERICENTER": 206.6425, "MEAN_ANOMALY": 153.4717, "EPHEMERIS_TYPE": 0, "CLASSIFICATION_TYPE": "U", "NORAD_CAT_ID": 66764, "ELEMENT_SET_NO": 999, "REV_AT_EPOCH": 325, "BSTAR": 0.00014778, "MEAN_MOTION_DOT": 2.909e-05, "MEAN_MOTION_DDOT": 0}, "tle": {"line1": "1 66764U 25276DC  25354.18560888  .00002909  00000+0  14778-3 0  9993", "line2": "2 66764  97.4416  65.8291 0001790 206.6425 153.4717 15.17669781  3254"}}, "geometry": {"type": "Point", "coordinates": [-111.86458157633547, 15.074461546693321]}}]}